GLOBALSTAR M063         
1 26081U 00008A   26002.55924881 -.00000070  00000+0  18161-3 0  9994
2 26081  51.9976 306.4945 0004897 342.3683 188.5517 11.86178631181236
GLOBALSTAR M062         
1 26082U 00008B   26002.62057275  .00000074  00000+0  12320-2 0  9990
2 26082  51.9827 229.3029 0006947 168.9921 212.6920 12.43481204521437
GLOBALSTAR M060         
1 26083U 00008C   26002.78366324 -.00000124  00000+0 -32907-3 0  9998
2 26083  51.9996 217.0710 0003375 149.8503 291.4385 12.17672025176689
GLOBALSTAR M064         
1 26084U 00008D   26002.45891662 -.00000071  00000+0  17205-3 0  9995
2 26084  52.0048  43.2365 0001681  92.4154 267.6871 11.88539795190794
GLOBALSTAR M065         
1 31571U 07020A   25351.59775860 -.00000114  00000+0 -59491-4 0  9998
2 31571  51.9915  28.0181 0009699 356.5964 173.4742 12.62015524856566
GLOBALSTAR M069         
1 31573U 07020C   26002.25423147 -.00000056  00000+0  33382-3 0  9999
2 31573  52.0061   1.7804 0001803 161.5172 211.7420 12.23465742858497
GLOBALSTAR M072         
1 31574U 07020D   26002.73200404 -.00000070  00000+0  19230-3 0  9994
2 31574  51.9906 180.7324 0001464  43.6299  44.2748 11.91655091855257
GLOBALSTAR M071         
1 31576U 07020F   26002.52242375 -.00000090  00000+0  14792-4 0  9997
2 31576  52.0080  32.2582 0001121 146.9648   8.0098 12.18263413519230
